OBJECT_NAME,OBJECT_ID,EPOCH,MEAN_MOTION,ECCENTRICITY,INCLINATION,RA_OF_ASC_NODE,ARG_OF_PERICENTER,MEAN_ANOMALY,EPHEMERIS_TYPE,CLASSIFICATION_TYPE,NORAD_CAT_ID,ELEMENT_SET_NO,REV_AT_EPOCH,BSTAR,MEAN_MOTION_DOT,MEAN_MOTION_DDOT
ASNARO-2,2018-007A,2026-06-20T06:36:22.851936,15.22410964,.00018225,97.3975,178.1543,91.4082,268.7363,0,U,43152,999,46788,.31997856E-3,.7327E-4,0
JILIN-1 07,2018-008E,2026-06-20T06:54:22.440672,15.34766473,.00096662,97.1770,191.1336,56.2463,303.9700,0,U,43159,999,46547,.22085433E-3,.7377E-4,0
JILIN-1 08,2018-008F,2026-06-20T06:57:39.913920,15.33742145,.00079059,97.1803,190.4491,71.8231,288.3872,0,U,43160,999,46542,.13897287E-3,.4462E-4,0
S-NET D,2018-014G,2026-06-20T07:10:17.035392,15.16696846,.00086314,97.5356,76.0698,20.4965,339.6613,0,U,43186,999,45923,.21192049E-3,.4087E-4,0
S-NET B,2018-014H,2026-06-20T05:51:51.474528,15.16666684,.00091126,97.5362,76.0022,15.6078,344.5434,0,U,43187,999,45922,.19427051E-3,.3738E-4,0
S-NET A,2018-014J,2026-06-20T07:08:38.619744,15.16704943,.0008975,97.5373,76.2647,16.0073,344.1441,0,U,43188,999,45923,.21458815E-3,.414E-4,0
S-NET C,2018-014K,2026-06-20T04:22:27.340032,15.16658370,.0010138,97.5390,76.2251,7.9683,352.1709,0,U,43189,999,45776,.19299084E-3,.3712E-4,0
PAZ,2018-020A,2026-06-20T06:26:54.516192,15.19146240,.00017131,97.4453,178.6107,88.0280,272.1150,0,U,43215,999,46147,.69529466E-4,.1393E-4,0
GOES 17,2018-022A,2026-06-20T03:07:04.492704,1.00269494,.00005787,0.9457,85.6586,27.7610,112.1610,0,U,43226,999,3045,0,-.187E-5,0
LKW-4,2018-025A,2026-06-20T05:13:24.444192,15.62484966,.00019912,97.6352,342.3287,274.2651,85.8379,0,U,43236,999,46050,.43904625E-3,.39015E-3,0
ZHUHAI-1 OVS-02,2018-040B,2026-06-20T07:34:09.733152,15.25059719,.00020437,97.0388,188.3595,216.0757,144.0344,0,U,43440,999,45319,.24510938E-3,.6061E-4,0
ZHUHAI-1 OHS-02,2018-040C,2026-06-20T07:10:09.764832,15.25918339,.00084289,97.0371,195.2865,207.4871,152.5924,0,U,43441,999,11475,.2504476E-3,.6363E-4,0
GAOFEN-6,2018-048A,2026-06-20T07:46:19.095168,14.76599076,.00118762,97.9704,234.0313,155.8710,204.3058,0,U,43484,999,43385,-.19885718E-4,-.19E-5,0
LUOJIA-1 01,2018-048B,2026-06-20T06:27:22.951296,14.87293338,.00103526,97.8100,249.4074,108.3987,251.8356,0,U,43485,999,43467,.10655048E-3,.907E-5,0
PAKTES 1A,2018-056A,2026-06-20T06:36:27.545184,14.99112545,.00219139,98.1306,327.8939,96.6033,263.7684,0,U,43529,999,43238,.7753432E-4,.881E-5,0
PRSS-1,2018-056B,2026-06-20T07:05:48.167232,14.81993909,.00016012,97.7815,239.0797,77.6853,282.4540,0,U,43530,999,42889,.11297912E-3,.845E-5,0
HAIYANG-1C,2018-068A,2026-06-20T07:33:14.182272,14.34179596,.00121312,98.5186,243.5779,86.0785,274.1786,0,U,43609,999,40753,.16108565E-4,.2E-7,0
SSTL S1-4,2018-071A,2026-06-20T07:09:47.546208,14.96180374,.00012432,97.5015,42.7831,110.4897,249.6458,0,U,43618,999,42340,.11927126E-4,.8E-6,0
HAIYANG-2B,2018-081A,2026-06-20T06:46:19.646976,13.79307471,.00002634,99.3284,179.9922,0.6217,359.4935,0,U,43655,999,38535,.92976043E-4,.51E-6,0
CFOSAT,2018-083A,2026-06-20T06:16:12.149472,15.16390018,.00024084,97.3606,175.7013,88.8487,271.3022,0,U,43662,999,42290,.1251281E-3,.2365E-4,0
TEN-KOH,2018-084G,2026-06-20T06:04:03.309312,15.02951920,.00115274,98.0770,3.7460,105.3842,254.8657,0,U,43677,999,41662,.10394697E-3,.1332E-4,0
DIWATA-2B,2018-084H,2026-06-20T07:18:02.047104,15.00462826,.00127678,98.1188,7.6472,160.1805,199.9916,0,U,43678,999,41668,.13265502E-3,.1606E-4,0
STARS-AO,2018-084J,2026-06-19T13:55:10.881120,15.17074017,.00030339,98.0497,24.6984,131.9417,228.2074,0,U,43679,999,41783,.22217157E-3,.4324E-4,0
AUTCUBE 2,2018-084K,2026-06-19T06:49:41.704608,15.10102080,.00099013,98.0708,16.5700,43.1941,317.0062,0,U,43681,999,41724,.15440469E-3,.2446E-4,0
METOP-C,2018-087A,2026-06-20T05:39:05.416704,14.21512828,.0001872,98.6643,230.7834,125.4613,234.6740,0,U,43689,999,39526,.48594105E-4,.63E-6,0
ES'HAIL 2,2018-090A,2026-06-20T06:06:27.376128,1.00272434,.00018179,0.0157,57.1433,67.4240,261.2931,0,U,43700,999,2770,0,.139E-5,0
MOHAMMED VI-B,2018-095A,2026-06-20T07:01:49.353312,14.77120223,.00013385,97.9551,243.5760,99.3324,260.8037,0,U,43717,999,40864,.6038988E-4,.376E-5,0
HYSIS,2018-096A,2026-06-20T07:47:03.255072,14.78619714,.00017591,97.9832,238.0480,97.7491,262.3920,0,U,43719,999,40788,-.1157437E-5,-.6E-6,0
COSMOS 2530 (RODNIK-S 16),2018-097A,2026-06-20T06:35:29.014368,12.42881031,.00200665,82.5130,220.3649,33.1909,327.0425,0,U,43751,999,34267,-.63220404E-3,-.78E-6,0
