ASNARO-2                
1 43152U 18007A   26171.27526449  .00007327  00000+0  31998-3 0  9998
2 43152  97.3975 178.1543 0001822  91.4082 268.7363 15.22410964467885
JILIN-1 07              
1 43159U 18008E   26171.28775973  .00007377  00000+0  22085-3 0  9997
2 43159  97.1770 191.1336 0009666  56.2463 303.9700 15.34766473465476
JILIN-1 08              
1 43160U 18008F   26171.29004530  .00004462  00000+0  13897-3 0  9997
2 43160  97.1803 190.4491 0007905  71.8231 288.3872 15.33742145465429
S-NET D                 
1 43186U 18014G   26171.29880828  .00004087  00000+0  21192-3 0  9994
2 43186  97.5356  76.0698 0008631  20.4965 339.6613 15.16696846459235
S-NET B                 
1 43187U 18014H   26171.24434577  .00003738  00000+0  19427-3 0  9996
2 43187  97.5362  76.0022 0009112  15.6078 344.5434 15.16666684459222
S-NET A                 
1 43188U 18014J   26171.29766921  .00004140  00000+0  21459-3 0  9999
2 43188  97.5373  76.2647 0008975  16.0073 344.1441 15.16704943459232
S-NET C                 
1 43189U 18014K   26171.18226088  .00003712  00000+0  19299-3 0  9996
2 43189  97.5390  76.2251 0010138   7.9683 352.1709 15.16658370457767
PAZ                     
1 43215U 18020A   26171.26868653  .00001393  00000+0  69529-4 0  9997
2 43215  97.4453 178.6107 0001713  88.0280 272.1150 15.19146240461470
GOES 17                 
1 43226U 18022A   26171.12991311 -.00000187  00000+0  00000+0 0  9999
2 43226   0.9457  85.6586 0000578  27.7610 112.1610  1.00269494 30454
LKW-4                   
1 43236U 18025A   26171.21764403  .00039015  00000+0  43905-3 0  9999
2 43236  97.6352 342.3287 0001991 274.2651  85.8379 15.62484966460504
ZHUHAI-1 OVS-02         
1 43440U 18040B   26171.31539043  .00006061  00000+0  24511-3 0  9991
2 43440  97.0388 188.3595 0002043 216.0757 144.0344 15.25059719453194
ZHUHAI-1 OHS-02         
1 43441U 18040C   26171.29872413  .00006363  00000+0  25045-3 0  9998
2 43441  97.0371 195.2865 0008428 207.4871 152.5924 15.25918339114754
GAOFEN-6                
1 43484U 18048A   26171.32383212 -.00000190  00000+0 -19886-4 0  9992
2 43484  97.9704 234.0313 0011876 155.8710 204.3058 14.76599076433856
LUOJIA-1 01             
1 43485U 18048B   26171.26901564  .00000907  00000+0  10655-3 0  9990
2 43485  97.8100 249.4074 0010352 108.3987 251.8356 14.87293338434670
PAKTES 1A               
1 43529U 18056A   26171.27531881  .00000881  00000+0  77534-4 0  9991
2 43529  98.1306 327.8939 0021913  96.6033 263.7684 14.99112545432383
PRSS-1                  
1 43530U 18056B   26171.29569638  .00000845  00000+0  11298-3 0  9990
2 43530  97.7815 239.0797 0001601  77.6853 282.4540 14.81993909428894
HAIYANG-1C              
1 43609U 18068A   26171.31474748  .00000002  00000+0  16109-4 0  9992
2 43609  98.5186 243.5779 0012131  86.0785 274.1786 14.34179596407533
SSTL S1-4               
1 43618U 18071A   26171.29846697  .00000080  00000+0  11927-4 0  9998
2 43618  97.5015  42.7831 0001243 110.4897 249.6458 14.96180374423400
HAIYANG-2B              
1 43655U 18081A   26171.28217184  .00000051  00000+0  92976-4 0  9993
2 43655  99.3284 179.9922 0000263   0.6217 359.4935 13.79307471385350
CFOSAT                  
1 43662U 18083A   26171.26125173  .00002365  00000+0  12513-3 0  9995
2 43662  97.3606 175.7013 0002408  88.8487 271.3022 15.16390018422903
TEN-KOH                 
1 43677U 18084G   26171.25281608  .00001332  00000+0  10395-3 0  9996
2 43677  98.0770   3.7460 0011527 105.3842 254.8657 15.02951920416629
DIWATA-2B               
1 43678U 18084H   26171.30419036  .00001606  00000+0  13266-3 0  9995
2 43678  98.1188   7.6472 0012767 160.1805 199.9916 15.00462826416688
STARS-AO                
1 43679U 18084J   26170.57998705  .00004324  00000+0  22217-3 0  9995
2 43679  98.0497  24.6984 0003033 131.9417 228.2074 15.17074017417837
AUTCUBE 2               
1 43681U 18084K   26170.28451047  .00002446  00000+0  15440-3 0  9992
2 43681  98.0708  16.5700 0009901  43.1941 317.0062 15.10102080417241
METOP-C                 
1 43689U 18087A   26171.23547936  .00000063  00000+0  48594-4 0  9992
2 43689  98.6643 230.7834 0001872 125.4613 234.6740 14.21512828395260
ES'HAIL 2               
1 43700U 18090A   26171.25448352  .00000139  00000+0  00000+0 0  9993
2 43700   0.0157  57.1433 0001817  67.4240 261.2931  1.00272434 27705
MOHAMMED VI-B           
1 43717U 18095A   26171.29293233  .00000376  00000+0  60390-4 0  9992
2 43717  97.9551 243.5760 0001338  99.3324 260.8037 14.77120223408649
HYSIS                   
1 43719U 18096A   26171.32434323 -.00000060  00000+0 -11574-5 0  9999
2 43719  97.9832 238.0480 0001759  97.7491 262.3920 14.78619714407887
COSMOS 2530 (RODNIK-S *)
1 43751U 18097A   26171.27464137 -.00000078  00000+0 -63220-3 0  9998
2 43751  82.5130 220.3649 0020066  33.1909 327.0425 12.42881031342671
